{
  "type": "FeatureCollection",
  "features": [
    {
      "type": "Feature",
      "properties": {
        "norad_id": 31692,
        "name": "FENGYUN 1C DEB",
        "group": "fengyun-1c-debris",
        "lat": 40.46052016316782,
        "lon": -14.62812461204489,
        "alt_km": 765.4475098131943,
        "timestamp": "2025-12-22T11:33:20.723292+00:00",
        "meta_object_name": "FENGYUN 1C DEB",
        "meta_object_id": "1999-025CDA",
        "meta_epoch": "2025-12-18T22:43:06.035232",
        "meta_mean_motion": 14.18414405,
        "meta_eccentricity": 0.00880976,
        "meta_inclination": 99.1757,
        "meta_ra_of_asc_node": 349.6414,
        "meta_arg_of_pericenter": 64.1143,
        "meta_mean_anomaly": 296.9081,
        "meta_ephemeris_type": 0,
        "meta_classification_type": "U",
        "meta_norad_cat_id": 31692,
        "meta_element_set_no": 999,
        "meta_rev_at_epoch": 58297,
        "meta_bstar": 0.002131478,
        "meta_mean_motion_dot": 4.527e-05,
        "meta_mean_motion_ddot": 0,
        "tle_line1": "1 31692U 99025CDA 25352.94659763  .00004527  00000+0  21315-2 0  9993",
        "tle_line2": "2 31692  99.1757 349.6414 0088097  64.1143 296.9081 14.18414405582971"
      },
      "geometry": {
        "type": "Point",
        "coordinates": [
          -14.62812461204489,
          40.46052016316782
        ]
      }
    },
    {
      "type": "Feature",
      "properties": {
        "norad_id": 31695,
        "name": "FENGYUN 1C DEB",
        "group": "fengyun-1c-debris",
        "lat": -45.78880931704072,
        "lon": 89.57956411573285,
        "alt_km": 707.8610115983001,
        "timestamp": "2025-12-22T11:33:20.723324+00:00",
        "meta_object_name": "FENGYUN 1C DEB",
        "meta_object_id": "1999-025CDD",
        "meta_epoch": "2025-12-20T12:31:09.702912",
        "meta_mean_motion": 14.73845928,
        "meta_eccentricity": 0.01749697,
        "meta_inclination": 98.2649,
        "meta_ra_of_asc_node": 78.9886,
        "meta_arg_of_pericenter": 203.7711,
        "meta_mean_anomaly": 155.5345,
        "meta_ephemeris_type": 0,
        "meta_classification_type": "U",
        "meta_norad_cat_id": 31695,
        "meta_element_set_no": 999,
        "meta_rev_at_epoch": 66086,
        "meta_bstar": 0.0012316414,
        "meta_mean_motion_dot": 0.00010264,
        "meta_mean_motion_ddot": 0,
        "tle_line1": "1 31695U 99025CDD 25354.52164008  .00010264  00000+0  12316-2 0  9991",
        "tle_line2": "2 31695  98.2649  78.9886 0174969 203.7711 155.5345 14.73845928660862"
      },
      "geometry": {
        "type": "Point",
        "coordinates": [
          89.57956411573285,
          -45.78880931704072
        ]
      }
    },
    {
      "type": "Feature",
      "properties": {
        "norad_id": 31714,
        "name": "FENGYUN 1C DEB",
        "group": "fengyun-1c-debris",
        "lat": -16.40290393420274,
        "lon": 75.33007197291883,
        "alt_km": 602.9193949617411,
        "timestamp": "2025-12-22T11:33:20.723336+00:00",
        "meta_object_name": "FENGYUN 1C DEB",
        "meta_object_id": "1999-025CDM",
        "meta_epoch": "2025-12-20T07:37:36.052032",
        "meta_mean_motion": 14.88778002,
        "meta_eccentricity": 0.00168865,
        "meta_inclination": 99.0321,
        "meta_ra_of_asc_node": 255.5489,
        "meta_arg_of_pericenter": 277.819,
        "meta_mean_anomaly": 208.4855,
        "meta_ephemeris_type": 0,
        "meta_classification_type": "U",
        "meta_norad_cat_id": 31714,
        "meta_element_set_no": 999,
        "meta_rev_at_epoch": 96162,
        "meta_bstar": 0.0040437912,
        "meta_mean_motion_dot": 0.0003806,
        "meta_mean_motion_ddot": 0,
        "tle_line1": "1 31714U 99025CDM 25354.31777838  .00038060  00000+0  40438-2 0  9991",
        "tle_line2": "2 31714  99.0321 255.5489 0016886 277.8190 208.4855 14.88778002961624"
      },
      "geometry": {
        "type": "Point",
        "coordinates": [
          75.33007197291883,
          -16.40290393420274
        ]
      }
    },
    {
      "type": "Feature",
      "properties": {
        "norad_id": 31715,
        "name": "FENGYUN 1C DEB",
        "group": "fengyun-1c-debris",
        "lat": 60.18954060487118,
        "lon": 169.73740114189766,
        "alt_km": 595.6041664622308,
        "timestamp": "2025-12-22T11:33:20.723346+00:00",
        "meta_object_name": "FENGYUN 1C DEB",
        "meta_object_id": "1999-025CDN",
        "meta_epoch": "2025-12-21T23:42:12.655008",
        "meta_mean_motion": 14.52231912,
        "meta_eccentricity": 0.0187071,
        "meta_inclination": 99.2917,
        "meta_ra_of_asc_node": 185.7942,
        "meta_arg_of_pericenter": 91.9248,
        "meta_mean_anomaly": 270.3379,
        "meta_ephemeris_type": 0,
        "meta_classification_type": "U",
        "meta_norad_cat_id": 31715,
        "meta_element_set_no": 999,
        "meta_rev_at_epoch": 61851,
        "meta_bstar": 0.00075875,
        "meta_mean_motion_dot": 3.813e-05,
        "meta_mean_motion_ddot": 0,
        "tle_line1": "1 31715U 99025CDN 25355.98764647  .00003813  00000+0  75875-3 0  9992",
        "tle_line2": "2 31715  99.2917 185.7942 0187071  91.9248 270.3379 14.52231912618511"
      },
      "geometry": {
        "type": "Point",
        "coordinates": [
          169.73740114189766,
          60.18954060487118
        ]
      }
    },
    {
      "type": "Feature",
      "properties": {
        "norad_id": 31716,
        "name": "FENGYUN 1C DEB",
        "group": "fengyun-1c-debris",
        "lat": 73.08248724015867,
        "lon": 104.55045776367707,
        "alt_km": 801.4466299873238,
        "timestamp": "2025-12-22T11:33:20.723356+00:00",
        "meta_object_name": "FENGYUN 1C DEB",
        "meta_object_id": "1999-025CDP",
        "meta_epoch": "2025-12-21T16:23:21.563808",
        "meta_mean_motion": 14.0364456,
        "meta_eccentricity": 0.0130948,
        "meta_inclination": 98.5546,
        "meta_ra_of_asc_node": 254.1373,
        "meta_arg_of_pericenter": 66.2695,
        "meta_mean_anomaly": 324.1978,
        "meta_ephemeris_type": 0,
        "meta_classification_type": "U",
        "meta_norad_cat_id": 31716,
        "meta_element_set_no": 999,
        "meta_rev_at_epoch": 94245,
        "meta_bstar": 0.0012055,
        "meta_mean_motion_dot": 2.004e-05,
        "meta_mean_motion_ddot": 0,
        "tle_line1": "1 31716U 99025CDP 25355.68288847  .00002004  00000+0  12055-2 0  9994",
        "tle_line2": "2 31716  98.5546 254.1373 0130948  66.2695 324.1978 14.03644560942452"
      },
      "geometry": {
        "type": "Point",
        "coordinates": [
          104.55045776367707,
          73.08248724015867
        ]
      }
    },
    {
      "type": "Feature",
      "properties": {
        "norad_id": 31720,
        "name": "FENGYUN 1C DEB",
        "group": "fengyun-1c-debris",
        "lat": 55.13413674819628,
        "lon": 102.70814370912979,
        "alt_km": 588.6844784110563,
        "timestamp": "2025-12-22T11:33:20.723366+00:00",
        "meta_object_name": "FENGYUN 1C DEB",
        "meta_object_id": "1999-025CDT",
        "meta_epoch": "2025-12-17T00:28:52.679424",
        "meta_mean_motion": 14.71860526,
        "meta_eccentricity": 0.01002517,
        "meta_inclination": 99.048,
        "meta_ra_of_asc_node": 263.4173,
        "meta_arg_of_pericenter": 110.3863,
        "meta_mean_anomaly": 250.8144,
        "meta_ephemeris_type": 0,
        "meta_classification_type": "U",
        "meta_norad_cat_id": 31720,
        "meta_element_set_no": 999,
        "meta_rev_at_epoch": 98299,
        "meta_bstar": 0.00056875806,
        "meta_mean_motion_dot": 3.786e-05,
        "meta_mean_motion_ddot": 0,
        "tle_line1": "1 31720U 99025CDT 25351.02005416  .00003786  00000+0  56876-3 0  9990",
        "tle_line2": "2 31720  99.0480 263.4173 0100251 110.3863 250.8144 14.71860526982993"
      },
      "geometry": {
        "type": "Point",
        "coordinates": [
          102.70814370912979,
          55.13413674819628
        ]
      }
    },
    {
      "type": "Feature",
      "properties": {
        "norad_id": 31721,
        "name": "FENGYUN 1C DEB",
        "group": "fengyun-1c-debris",
        "lat": 9.77305807059,
        "lon": -25.362293533204063,
        "alt_km": 1184.3996177441632,
        "timestamp": "2025-12-22T11:33:20.723376+00:00",
        "meta_object_name": "FENGYUN 1C DEB",
        "meta_object_id": "1999-025CDU",
        "meta_epoch": "2025-12-21T17:08:10.591008",
        "meta_mean_motion": 13.73785323,
        "meta_eccentricity": 0.031763,
        "meta_inclination": 99.7818,
        "meta_ra_of_asc_node": 335.5544,
        "meta_arg_of_pericenter": 160.3029,
        "meta_mean_anomaly": 17.997,
        "meta_ephemeris_type": 0,
        "meta_classification_type": "U",
        "meta_norad_cat_id": 31721,
        "meta_element_set_no": 999,
        "meta_rev_at_epoch": 67509,
        "meta_bstar": 0.00026204,
        "meta_mean_motion_dot": 3.07e-06,
        "meta_mean_motion_ddot": 0,
        "tle_line1": "1 31721U 99025CDU 25355.71401147  .00000307  00000+0  26204-3 0  9990",
        "tle_line2": "2 31721  99.7818 335.5544 0317630 160.3029  17.9970 13.73785323675090"
      },
      "geometry": {
        "type": "Point",
        "coordinates": [
          -25.362293533204063,
          9.77305807059
        ]
      }
    }
  ]
}